OBJECT_NAME,OBJECT_ID,EPOCH,MEAN_MOTION,ECCENTRICITY,INCLINATION,RA_OF_ASC_NODE,ARG_OF_PERICENTER,MEAN_ANOMALY,EPHEMERIS_TYPE,CLASSIFICATION_TYPE,NORAD_CAT_ID,ELEMENT_SET_NO,REV_AT_EPOCH,BSTAR,MEAN_MOTION_DOT,MEAN_MOTION_DDOT
IRIDIUM 156,2018-061H,2024-07-07T20:24:58.488480,14.34217874,.0002294,86.3980,353.1615,87.9826,272.1632,0,U,43576,999,31169,.16531E-4,.66E-6,0
IRIDIUM 164,2018-061J,2024-07-08T04:19:54.471648,14.34217929,.0002037,86.3982,353.0530,83.8334,276.3094,0,U,43577,999,31179,.32959E-4,.112E-5,0
IRIDIUM 159,2018-061K,2024-07-07T20:52:22.435104,14.34217750,.0001922,86.3980,353.1345,89.6886,270.4530,0,U,43578,999,31171,.22502E-4,.83E-6,0
IRIDIUM 180,2019-002A,2024-07-07T09:08:22.953408,14.34217707,.0002009,86.3965,290.2187,97.6460,262.4964,0,U,43922,999,28725,.24344E-6,.2E-6,0
IRIDIUM 176,2019-002B,2024-07-07T08:56:01.705344,14.72238920,.0002155,86.6097,290.2426,92.0484,268.0980,0,U,43923,999,29481,.223E-3,.143E-4,0
IRIDIUM 168,2019-002C,2024-07-07T17:21:34.899840,14.34217848,.0002238,86.3968,290.1327,93.7143,266.4309,0,U,43924,999,28728,.32615E-4,.111E-5,0
IRIDIUM 173,2019-002D,2024-07-07T17:03:18.832896,14.34219187,.0002139,86.3967,290.0562,94.0589,266.0851,0,U,43925,999,28727,.79256E-4,.242E-5,0
IRIDIUM 169,2019-002E,2024-07-07T20:28:19.887744,14.38627706,.0003445,86.4239,321.6242,129.4380,230.7123,0,U,43926,999,28824,.15914E-3,.507E-5,0
IRIDIUM 172,2019-002F,2024-07-08T04:37:26.985216,14.34217235,.000214,86.3970,289.8606,93.7129,266.4311,0,U,43927,999,28734,.57142E-4,.18E-5,0
IRIDIUM 175,2019-002G,2024-07-08T04:22:22.796256,14.72234427,.0002237,86.1501,261.8577,100.7683,259.3786,0,U,43928,999,29492,.1988E-3,.1278E-4,0
IRIDIUM 171,2019-002H,2024-07-07T19:47:42.961056,14.34218219,.0002279,86.3977,290.2421,89.1836,270.9621,0,U,43929,999,28728,.1294E-4,.56E-6,0
IRIDIUM 170,2019-002J,2024-07-07T18:52:10.312608,14.72237910,.0002326,86.6096,290.0745,94.5504,265.5978,0,U,43930,999,29488,.22109E-3,.1418E-4,0
IRIDIUM 167,2019-002K,2024-07-07T07:55:18.645024,14.34215907,.0002275,86.3967,290.2368,93.3157,266.8299,0,U,43931,999,28721,.69311E-5,.39E-6,0
IRIDIUM 181,2023-068S,2024-07-07T19:59:09.054816,14.43584854,.0002474,86.8649,344.7625,91.8544,268.2941,0,U,56726,999,6011,.15295E-3,.537E-5,0
IRIDIUM 177,2023-068T,2024-07-07T20:15:01.015200,14.80218347,.0002424,86.1987,305.5517,84.7693,275.3805,0,U,56727,999,6143,.27386E-3,.2107E-4,0
IRIDIUM 174,2023-068U,2024-07-07T20:07:11.192736,14.80219455,.0002371,86.1993,305.6596,93.6339,266.5153,0,U,56728,999,6143,.27E-3,.2078E-4,0
IRIDIUM 178,2023-068V,2024-07-07T10:15:16.988544,14.80215754,.0002247,86.5796,324.2789,100.3446,259.8029,0,U,56729,999,6137,.24182E-3,.1863E-4,0
IRIDIUM 179,2023-068W,2024-07-07T10:07:26.848992,14.80211550,.000243,86.6805,328.6705,98.3320,261.8177,0,U,56730,999,6137,.2386E-3,.1838E-4,0
